start=new Date('2021-10-27T00:00:00.000Z').valueOf();
sats=[{"TIME_SYSTEM":"UTC","RCS_SIZE":"LARGE","LAUNCH_DATE":"2020-08-07","MEAN_MOTION_DOT":"0.00000453","MEAN_MOTION":"15.06401153","PERIOD":"95.592","REF_FRAME":"TEME","EPHEMERIS_TYPE":"0","PERIAPSIS":"546.197","ARG_OF_PERICENTER":"91.1837","NORAD_CAT_ID":"46052","OBJECT_ID":"2020-055AB","GP_ID":"188198301","OBJECT_NAME":"STARLINK-1541","EPOCH":"2021-10-26T10:34:24.270816","CLASSIFICATION_TYPE":"U","ECCENTRICITY":"0.00014630","SITE":"AFETR","MEAN_ELEMENT_THEORY":"SGP4","TLE_LINE2":"2 46052  53.0538  77.9745 0001463  91.1837 268.9319 15.06401153 68564","MEAN_ANOMALY":"268.9319","RA_OF_ASC_NODE":"77.9745","TLE_LINE1":"1 46052U 20055AB  21299.44055869  .00000453  00000-0  49289-4 0  9991","BSTAR":"0.00004928900000","SEMIMAJOR_AXIS":"6925.345","DECAY_DATE":null,"COUNTRY_CODE":"US","CENTER_NAME":"EARTH","OBJECT_TYPE":"PAYLOAD","ELEMENT_SET_NO":"999","APOAPSIS":"548.223","FILE":"3184921","MEAN_MOTION_DDOT":"0.0000000000000","INCLINATION":"53.0538","REV_AT_EPOCH":"6856"},{"RA_OF_ASC_NODE":"78.2537","MEAN_ANOMALY":"261.6611","TLE_LINE2":"2 46053  53.0534  78.2537 0001258  98.4521 261.6611 15.06400656 68063","CLASSIFICATION_TYPE":"U","ECCENTRICITY":"0.00012580","EPOCH":"2021-10-26T09:04:09.670944","SITE":"AFETR","MEAN_ELEMENT_THEORY":"SGP4","OBJECT_NAME":"STARLINK-1543","MEAN_MOTION_DDOT":"0.0000000000000","FILE":"3184666","REV_AT_EPOCH":"6806","INCLINATION":"53.0534","ELEMENT_SET_NO":"999","APOAPSIS":"548.083","CENTER_NAME":"EARTH","OBJECT_TYPE":"PAYLOAD","COUNTRY_CODE":"US","DECAY_DATE":null,"SEMIMAJOR_AXIS":"6925.347","BSTAR":"0.00011914000000","TLE_LINE1":"1 46053U 20055AC  21299.37788971  .00001494  00000-0  11914-3 0  9990","REF_FRAME":"TEME","PERIOD":"95.592","MEAN_MOTION":"15.06400656","MEAN_MOTION_DOT":"0.00001494","RCS_SIZE":"LARGE","TIME_SYSTEM":"UTC","LAUNCH_DATE":"2020-08-07","GP_ID":"188171849","OBJECT_ID":"2020-055AC","ARG_OF_PERICENTER":"98.4521","NORAD_CAT_ID":"46053","EPHEMERIS_TYPE":"0","PERIAPSIS":"546.340"},{"LAUNCH_DATE":"2020-08-07","RCS_SIZE":"LARGE","TIME_SYSTEM":"UTC","MEAN_MOTION":"15.06395505","MEAN_MOTION_DOT":"-0.00000298","REF_FRAME":"TEME","PERIOD":"95.592","PERIAPSIS":"546.329","EPHEMERIS_TYPE":"0","OBJECT_ID":"2020-055AD","ARG_OF_PERICENTER":"88.5116","NORAD_CAT_ID":"46054","GP_ID":"188171356","MEAN_ELEMENT_THEORY":"SGP4","SITE":"AFETR","EPOCH":"2021-10-26T09:14:47.250240","CLASSIFICATION_TYPE":"U","ECCENTRICITY":"0.00012970","OBJECT_NAME":"STARLINK-1548","TLE_LINE2":"2 46054  53.0552  78.2090 0001297  88.5116 271.6022 15.06395505 68042","RA_OF_ASC_NODE":"78.2090","MEAN_ANOMALY":"271.6022","SEMIMAJOR_AXIS":"6925.362","BSTAR":"-0.00000114120000","TLE_LINE1":"1 46054U 20055AD  21299.38526910 -.00000298  00000-0 -11412-5 0  9993","OBJECT_TYPE":"PAYLOAD","CENTER_NAME":"EARTH","DECAY_DATE":null,"COUNTRY_CODE":"US","APOAPSIS":"548.126","ELEMENT_SET_NO":"999","FILE":"3184666","REV_AT_EPOCH":"6804","MEAN_MOTION_DDOT":"0.0000000000000","INCLINATION":"53.0552"},{"MEAN_ANOMALY":"271.1314","RA_OF_ASC_NODE":"77.9931","OBJECT_NAME":"STARLINK-1554","CLASSIFICATION_TYPE":"U","ECCENTRICITY":"0.00012250","EPOCH":"2021-10-26T10:29:05.539488","MEAN_ELEMENT_THEORY":"SGP4","SITE":"AFETR","TLE_LINE2":"2 46055  53.0552  77.9931 0001225  88.9815 271.1314 15.06406924 68041","ELEMENT_SET_NO":"999","APOAPSIS":"548.041","FILE":"3185036","REV_AT_EPOCH":"6804","MEAN_MOTION_DDOT":"0.0000000000000","INCLINATION":"53.0552","TLE_LINE1":"1 46055U 20055AE  21299.43686967  .00001801  00000-0  13976-3 0  9993","SEMIMAJOR_AXIS":"6925.327","BSTAR":"0.00013976000000","COUNTRY_CODE":"US","DECAY_DATE":null,"CENTER_NAME":"EARTH","OBJECT_TYPE":"PAYLOAD","MEAN_MOTION_DOT":"0.00001801","MEAN_MOTION":"15.06406924","REF_FRAME":"TEME","PERIOD":"95.592","RCS_SIZE":"LARGE","TIME_SYSTEM":"UTC","LAUNCH_DATE":"2020-08-07","OBJECT_ID":"2020-055AE","ARG_OF_PERICENTER":"88.9815","NORAD_CAT_ID":"46055","GP_ID":"188202619","EPHEMERIS_TYPE":"0","PERIAPSIS":"546.344"},{"CLASSIFICATION_TYPE":"U","ECCENTRICITY":"0.00011830","EPOCH":"2021-10-26T09:25:24.369024","MEAN_ELEMENT_THEORY":"SGP4","SITE":"AFETR","OBJECT_NAME":"STARLINK-1561","TLE_LINE2":"2 46056  53.0542  78.1831 0001183  85.2765 274.8359 15.06408591 68041","RA_OF_ASC_NODE":"78.1831","MEAN_ANOMALY":"274.8359","SEMIMAJOR_AXIS":"6925.322","BSTAR":"0.00024300000000","TLE_LINE1":"1 46056U 20055AF  21299.39264316  .00003341  00000-0  24300-3 0  9993","CENTER_NAME":"EARTH","OBJECT_TYPE":"PAYLOAD","DECAY_DATE":null,"COUNTRY_CODE":"US","ELEMENT_SET_NO":"999","APOAPSIS":"548.006","MEAN_MOTION_DDOT":"0.0000000000000","FILE":"3184686","INCLINATION":"53.0542","REV_AT_EPOCH":"6804","TIME_SYSTEM":"UTC","RCS_SIZE":"LARGE","LAUNCH_DATE":"2020-08-07","MEAN_MOTION":"15.06408591","MEAN_MOTION_DOT":"0.00003341","PERIOD":"95.592","REF_FRAME":"TEME","EPHEMERIS_TYPE":"0","PERIAPSIS":"546.368","OBJECT_ID":"2020-055AF","NORAD_CAT_ID":"46056","ARG_OF_PERICENTER":"85.2765","GP_ID":"188171992"},{"MEAN_MOTION_DOT":"0.00000390","MEAN_MOTION":"15.06405510","PERIOD":"95.592","REF_FRAME":"TEME","TIME_SYSTEM":"UTC","RCS_SIZE":"LARGE","LAUNCH_DATE":"2020-08-07","ARG_OF_PERICENTER":"84.1962","OBJECT_ID":"2020-055AH","NORAD_CAT_ID":"46058","GP_ID":"188198548","EPHEMERIS_TYPE":"0","PERIAPSIS":"546.210","MEAN_ANOMALY":"275.9189","RA_OF_ASC_NODE":"78.1261","OBJECT_NAME":"STARLINK-1564","ECCENTRICITY":"0.00014250","CLASSIFICATION_TYPE":"U","EPOCH":"2021-10-26T09:41:19.136544","MEAN_ELEMENT_THEORY":"SGP4","SITE":"AFETR","TLE_LINE2":"2 46058  53.0548  78.1261 0001425  84.1962 275.9189 15.06405510 68582","ELEMENT_SET_NO":"999","APOAPSIS":"548.184","INCLINATION":"53.0548","FILE":"3184921","MEAN_MOTION_DDOT":"0.0000000000000","REV_AT_EPOCH":"6858","TLE_LINE1":"1 46058U 20055AH  21299.40369371  .00000390  00000-0  45060-4 0  9992","BSTAR":"0.00004506000000","SEMIMAJOR_AXIS":"6925.332","COUNTRY_CODE":"US","DECAY_DATE":null,"CENTER_NAME":"EARTH","OBJECT_TYPE":"PAYLOAD"},{"OBJECT_NAME":"STARLINK-1570","EPOCH":"2021-10-26T09:51:56.350368","CLASSIFICATION_TYPE":"U","ECCENTRICITY":"0.00014560","SITE":"AFETR","MEAN_ELEMENT_THEORY":"SGP4","TLE_LINE2":"2 46059  53.0535  78.1054 0001456  87.8746 272.2410 15.06399090 68541","MEAN_ANOMALY":"272.2410","RA_OF_ASC_NODE":"78.1054","TLE_LINE1":"1 46059U 20055AJ  21299.41106887 -.00000366  00000-0 -56910-5 0  9997","SEMIMAJOR_AXIS":"6925.351","BSTAR":"-0.00000569100000","DECAY_DATE":null,"COUNTRY_CODE":"US","CENTER_NAME":"EARTH","OBJECT_TYPE":"PAYLOAD","ELEMENT_SET_NO":"999","APOAPSIS":"548.225","INCLINATION":"53.0535","FILE":"3184921","MEAN_MOTION_DDOT":"0.0000000000000","REV_AT_EPOCH":"6854","RCS_SIZE":"LARGE","TIME_SYSTEM":"UTC","LAUNCH_DATE":"2020-08-07","MEAN_MOTION_DOT":"-0.00000366","MEAN_MOTION":"15.06399090","REF_FRAME":"TEME","PERIOD":"95.592","EPHEMERIS_TYPE":"0","PERIAPSIS":"546.208","ARG_OF_PERICENTER":"87.8746","NORAD_CAT_ID":"46059","OBJECT_ID":"2020-055AJ","GP_ID":"188197300"},{"OBJECT_ID":"2020-055AK","ARG_OF_PERICENTER":"87.6598","NORAD_CAT_ID":"46060","GP_ID":"188172020","PERIAPSIS":"546.289","EPHEMERIS_TYPE":"0","MEAN_MOTION_DOT":"0.00000634","MEAN_MOTION":"15.06401693","PERIOD":"95.592","REF_FRAME":"TEME","LAUNCH_DATE":"2020-08-07","TIME_SYSTEM":"UTC","RCS_SIZE":"LARGE","APOAPSIS":"548.127","ELEMENT_SET_NO":"999","REV_AT_EPOCH":"6804","FILE":"3184692","MEAN_MOTION_DDOT":"0.0000000000000","INCLINATION":"53.0551","TLE_LINE1":"1 46060U 20055AK  21299.40737838  .00000634  00000-0  61430-4 0  9992","SEMIMAJOR_AXIS":"6925.343","BSTAR":"0.00006143000000","DECAY_DATE":null,"COUNTRY_CODE":"US","OBJECT_TYPE":"PAYLOAD","CENTER_NAME":"EARTH","MEAN_ANOMALY":"272.4542","RA_OF_ASC_NODE":"78.1160","OBJECT_NAME":"STARLINK-1572","MEAN_ELEMENT_THEORY":"SGP4","SITE":"AFETR","ECCENTRICITY":"0.00013270","CLASSIFICATION_TYPE":"U","EPOCH":"2021-10-26T09:46:37.492032","TLE_LINE2":"2 46060  53.0551  78.1160 0001327  87.6598 272.4542 15.06401693 68045"},{"SEMIMAJOR_AXIS":"6925.351","BSTAR":"0.00000848270000","TLE_LINE1":"1 46061U 20055AL  21299.46635742 -.00000155  00000-0  84827-5 0  9995","OBJECT_TYPE":"PAYLOAD","CENTER_NAME":"EARTH","DECAY_DATE":null,"COUNTRY_CODE":"US","APOAPSIS":"548.025","ELEMENT_SET_NO":"999","FILE":"3184690","REV_AT_EPOCH":"6805","MEAN_MOTION_DDOT":"0.0000000000000","INCLINATION":"53.0542","SITE":"AFETR","MEAN_ELEMENT_THEORY":"SGP4","ECCENTRICITY":"0.00011690","CLASSIFICATION_TYPE":"U","EPOCH":"2021-10-26T11:11:33.281088","OBJECT_NAME":"STARLINK-1573","TLE_LINE2":"2 46061  53.0542  77.8404 0001169  87.7566 272.3556 15.06399262 68056","RA_OF_ASC_NODE":"77.8404","MEAN_ANOMALY":"272.3556","PERIAPSIS":"546.406","EPHEMERIS_TYPE":"0","ARG_OF_PERICENTER":"87.7566","NORAD_CAT_ID":"46061","OBJECT_ID":"2020-055AL","GP_ID":"188172060","LAUNCH_DATE":"2020-08-07","TIME_SYSTEM":"UTC","RCS_SIZE":"LARGE","MEAN_MOTION":"15.06399262","MEAN_MOTION_DOT":"-0.00000155","PERIOD":"95.592","REF_FRAME":"TEME"},{"CLASSIFICATION_TYPE":"U","EPOCH":"2021-10-26T10:23:47.384448","ECCENTRICITY":"0.00012820","SITE":"AFETR","MEAN_ELEMENT_THEORY":"SGP4","OBJECT_NAME":"STARLINK-1574","TLE_LINE2":"2 46062  53.0550  78.0087 0001282  92.6867 267.4269 15.06400806 68559","RA_OF_ASC_NODE":"78.0087","MEAN_ANOMALY":"267.4269","SEMIMAJOR_AXIS":"6925.346","BSTAR":"0.00019355000000","TLE_LINE1":"1 46062U 20055AM  21299.43318732  .00002603  00000-0  19355-3 0  9991","CENTER_NAME":"EARTH","OBJECT_TYPE":"PAYLOAD","DECAY_DATE":null,"COUNTRY_CODE":"US","ELEMENT_SET_NO":"999","APOAPSIS":"548.099","INCLINATION":"53.0550","FILE":"3184921","MEAN_MOTION_DDOT":"0.0000000000000","REV_AT_EPOCH":"6855","RCS_SIZE":"LARGE","TIME_SYSTEM":"UTC","LAUNCH_DATE":"2020-08-07","MEAN_MOTION":"15.06400806","MEAN_MOTION_DOT":"0.00002603","PERIOD":"95.592","REF_FRAME":"TEME","EPHEMERIS_TYPE":"0","PERIAPSIS":"546.323","ARG_OF_PERICENTER":"92.6867","OBJECT_ID":"2020-055AM","NORAD_CAT_ID":"46062","GP_ID":"188198049"}];
